{
  "type": "FeatureCollection",
  "name": "No_Fly_Zones",
  "crs": {
    "type": "name",
    "properties": {
      "name": "urn:ogc:def:crs:OGC:1.3:CRS84"
    }
  },
  "features": [
    {
      "type": "Feature",
      "properties": {
        "OBJECTID": 1,
        "NAME": "P56B",
        "GIS_ID": "NoFlyZonePly_1",
        "GLOBALID": "{04B99E01-3990-462C-BE5E-2F9E428829A4}",
        "CREATOR": null,
        "CREATED": null,
        "EDITOR": null,
        "EDITED": null,
        "SHAPEAREA": 0,
        "SHAPELEN": 0,
        "source": "District of Columbia / NGA No Fly Zones via data.gov",
        "source_url": "https://hub.arcgis.com/api/v3/datasets/e58297b25d034aee9e90c76e25210d99_19/downloads/data?format=geojson&spatialRefId=4326&where=1%3D1",
        "retrieved": "2026-05-02"
      },
      "geometry": {
        "type": "Polygon",
        "coordinates": [
          [
            [
              -77.05637395503047,
              38.92255658649283
            ],
            [
              -77.05668350968085,
              38.92369490873309
            ],
            [
              -77.05719288003013,
              38.92478848705589
            ],
            [
              -77.05789215073194,
              38.92581604614129
            ],
            [
              -77.0587677147205,
              38.92675758199055
            ],
            [
              -77.05980253822645,
              38.9275947584738
            ],
            [
              -77.06097647215152,
              38.92831127687397
            ],
            [
              -77.06226666747786,
              38.92889320035202
            ],
            [
              -77.06364800240429,
              38.92932917930019
            ],
            [
              -77.06509360206148,
              38.9296107396596
            ],
            [
              -77.06657530063544,
              38.92973240004258
            ],
            [
              -77.06806425357398,
              38.92969177967272
            ],
            [
              -77.06953148066926,
              38.929489679231864
            ],
            [
              -77.07094839750056,
              38.929130026479065
            ],
            [
              -77.07228742756692,
              38.9286198397285
            ],
            [
              -77.07352249879796,
              38.927969029146794
            ],
            [
              -77.0746295745498,
              38.92719027902302
            ],
            [
              -77.07558709192278,
              38.926298758880264
            ],
            [
              -77.07637643437339,
              38.92531180750984
            ],
            [
              -77.07698223108514,
              38.9242486441416
            ],
            [
              -77.07739269055735,
              38.923129971522286
            ],
            [
              -77.07759985321194,
              38.92197756108623
            ],
            [
              -77.0775996708399,
              38.92081383831993
            ],
            [
              -77.0773921897106,
              38.91966145914476
            ],
            [
              -77.07698142225577,
              38.91854285958543
            ],
            [
              -77.07637539175813,
              38.917479796418505
            ],
            [
              -77.0755859120163,
              38.91649296916758
            ],
            [
              -77.07462832099417,
              38.91560157014045
            ],
            [
              -77.07352128402073,
              38.91482296059538
            ],
            [
              -77.07228634350197,
              38.91417227503531
            ],
            [
              -77.07094752673906,
              38.91366218761353
            ],
            [
              -77.06953088476878,
              38.91330261549589
            ],
            [
              -77.06806399700237,
              38.91310056632031
            ],
            [
              -77.0665753837902,
              38.91305995860432
            ],
            [
              -77.06509402303159,
              38.91318158612571
            ],
            [
              -77.06364874000849,
              38.91346308226835
            ],
            [
              -77.06226764340548,
              38.913898974311216
            ],
            [
              -77.06097763044961,
              38.9144807736089
            ],
            [
              -77.05980377666837,
              38.91519716483382
            ],
            [
              -77.05876894452054,
              38.916034213048285
            ],
            [
              -77.05789327650186,
              38.91697561583521
            ],
            [
              -77.05719381489654,
              38.91800306344782
            ],
            [
              -77.05668417887622,
              38.919096562912046
            ],
            [
              -77.05637429905399,
              38.920234825203444
            ],
            [
              -77.05627020951928,
              38.92139569750559
            ],
            [
              -77.05637395503047,
              38.92255658649283
            ]
          ]
        ]
      }
    },
    {
      "type": "Feature",
      "properties": {
        "OBJECTID": 2,
        "NAME": "P56A",
        "GIS_ID": "NoFlyZonePly_2",
        "GLOBALID": "{C727D90D-2181-45EE-BCF4-BF351EAC723A}",
        "CREATOR": null,
        "CREATED": null,
        "EDITOR": null,
        "EDITED": null,
        "SHAPEAREA": 0,
        "SHAPELEN": 0,
        "source": "District of Columbia / NGA No Fly Zones via data.gov",
        "source_url": "https://hub.arcgis.com/api/v3/datasets/e58297b25d034aee9e90c76e25210d99_19/downloads/data?format=geojson&spatialRefId=4326&where=1%3D1",
        "retrieved": "2026-05-02"
      },
      "geometry": {
        "type": "Polygon",
        "coordinates": [
          [
            [
              -77.00361338466284,
              38.90223000883331
            ],
            [
              -77.05028006937941,
              38.902230009146564
            ],
            [
              -77.05639118344567,
              38.89584111811718
            ],
            [
              -77.05055785281813,
              38.888896674687736
            ],
            [
              -77.04083561637795,
              38.88667445348138
            ],
            [
              -77.0336134026381,
              38.88778556093309
            ],
            [
              -77.02000228573577,
              38.88750778577692
            ],
            [
              -77.0200022813043,
              38.88223000745599
            ],
            [
              -77.00666895360793,
              38.88306334661642
            ],
            [
              -76.99889116537146,
              38.89306334643754
            ],
            [
              -77.00361338466284,
              38.90223000883331
            ]
          ]
        ]
      }
    }
  ]
}
